STARLINK-6273           
1 56395U 23061X   26196.02194652 -.00001043  00000+0 -28379-4 0  9995
2 56395  43.0024 188.3437 0000874 277.9899  82.0853 15.27575031177059
STARLINK-6302           
1 56396U 23061Y   26196.69621987  .00000770  00000+0  37504-4 0  9999
2 56396  43.0036 183.9516 0002098 265.1496  94.9116 15.27574502171582
STARLINK-6271           
1 56397U 23061Z   26196.66811568 -.00000482  00000+0 -79959-5 0  9996
2 56397  43.0031 184.5955 0001389 285.3719  74.6980 15.27573292176445
STARLINK-6288           
1 56398U 23061AA  26196.04621281 -.00000100  00000+0  58881-5 0  9997
2 56398  43.0015 187.6691 0001400 259.8412 100.2282 15.27575927176357
STARLINK-6277           
1 56399U 23061AB  26196.69236993 -.00000652  00000+0 -14158-4 0  9992
2 56399  43.0030 183.9252 0001508 276.1556  83.9124 15.27576293176457
STARLINK-6267           
1 56400U 23061AC  26196.31163372  .00000968  00000+0  44710-4 0  9999
2 56400  42.9990 186.2262 0001067 297.5672  62.5071 15.27566310176392
STARLINK-6287           
1 56404U 23061AG  26196.66042098  .00031118  00000+0  11413-2 0  9995
2 56404  43.0001 184.5281 0001368 215.8441 144.2319 15.27413481176443
STARLINK-6285           
1 56405U 23061AH  26196.05263936  .00001054  00000+0  47803-4 0  9995
2 56405  43.0015 187.7155 0001488 260.8464  99.2219 15.27585374176351
STARLINK-6283           
1 56406U 23061AJ  26196.93607109  .00000130  00000+0  14251-4 0  9992
2 56406  43.0010 183.1530 0000588 241.6903 118.3890 15.27574645176480
STARLINK-6282           
1 56407U 23061AK  26196.00266815 -.00001007  00000+0 -27070-4 0  9995
2 56407  43.0008 188.1958 0001486 283.7178  76.3508 15.27575216176345
STARLINK-6289           
1 56408U 23061AL  26196.35900887 -.00005763  00000+0 -20000-3 0  9996
2 56408  43.0038 185.7000 0002212 285.3203  74.7405 15.27584058176404
STARLINK-6241           
1 56409U 23061AM  26196.66296256  .00000138  00000+0  14531-4 0  9991
2 56409  43.0008 184.5525 0001097 260.7813  99.2915 15.27574767176443
STARLINK-6281           
1 56410U 23061AN  26196.35258656 -.00000570  00000+0 -11200-4 0  9993
2 56410  43.0021 185.6598 0001105 274.9109  85.1616 15.27575087176401
STARLINK-6279           
1 56411U 23061AP  26196.33988619  .00000212  00000+0  17229-4 0  9999
2 56411  43.0006 186.4246 0000234 290.6088  69.4738 15.27576175176394
STARLINK-6278           
1 56412U 23061AQ  26196.69364863  .00000005  00000+0  97168-5 0  9999
2 56412  43.0040 183.9255 0001930 278.2030  81.8603 15.27577598176454
STARLINK-6258           
1 56413U 23061AR  26196.67837743  .00000096  00000+0  13027-4 0  9991
2 56413  43.0019 184.6654 0001000 267.8873  92.1864 15.27574246176449
STARLINK-5136           
1 56414U 23061AS  26196.45394672  .00000541  00000+0  29178-4 0  9996
2 56414  43.0016 185.5575 0001110 280.7340  79.3386 15.27578799176414
STARLINK-6260           
1 56416U 23061AU  26196.95871600  .00000207  00000+0  17063-4 0  9993
2 56416  43.0016 175.4287 0001059 265.9015  94.1715 15.27574150176575
STARLINK-6261           
1 56417U 23061AV  26196.30905070  .00000080  00000+0  12433-4 0  9997
2 56417  43.0022 186.1946 0001498 264.2353  95.8328 15.27568028176393
STARLINK-5356           
1 56418U 23061AW  26196.66504271 -.00000608  00000+0 -12562-4 0  9996
2 56418  43.0019 176.6592 0001083 270.8530  89.2198 15.27577081176538
STARLINK-5350           
1 56419U 23061AX  26196.65396806 -.00000724  00000+0 -16787-4 0  9991
2 56419  43.0004 184.4813 0001433 292.1248  67.9451 15.27573620176448
STARLINK-6272           
1 56420U 23061AY  26196.93430017  .00000461  00000+0  26273-4 0  9994
2 56420  43.0028 175.2444 0001633 279.7165  80.3502 15.27574745176574
STARLINK-6270           
1 56421U 23061AZ  26196.03510129 -.00001093  00000+0 -30214-4 0  9993
2 56421  43.0035 183.9457 0001551 270.2650  89.8024 15.27571997176396
STARLINK-6236           
1 56422U 23061BA  26196.02917013  .00000208  00000+0  17070-4 0  9996
2 56422  43.0001 180.4870 0001190 239.5612 120.5122 15.27575536176436
STARLINK-6239           
1 56423U 23061BB  26196.34967907  .00000100  00000+0  13153-4 0  9998
2 56423  43.0034 178.5976 0001404 269.4206  90.6484 15.27575916176482
STARLINK-6242           
1 56424U 23061BC  26196.42920507  .00000504  00000+0  27838-4 0  9996
2 56424  42.9996 178.3356 0000835 327.6950  32.3850 15.27573885176492
STARLINK-6224           
1 56425U 23061BD  26196.03302719 -.00000001  00000+0  95002-5 0  9995
2 56425  43.0018 180.5174 0001382 267.2485  92.8209 15.27575394176433
STARLINK-5352           
1 56426U 23061BE  26196.63691783  .00007210  00000+0  27123-3 0  9999
2 56426  42.9985 177.2980 0000780   5.1192 354.9667 15.27584093176524
STARLINK-5724           
1 56427U 23061BF  26196.63949120  .00000340  00000+0  21875-4 0  9997
2 56427  43.0012 177.3171 0001102 271.6149  88.4577 15.27566749176529
STARLINK-6238           
1 56428U 23061BG  26196.30228260  .00000076  00000+0  12275-4 0  9997
2 56428  43.0020 179.0937 0001290 263.8455  96.2250 15.27573351176475
